start=new Date('2022-09-03T00:00:00.000Z').valueOf();
sats=[{"REV_AT_EPOCH":"7149","PERIAPSIS":"546.033","GP_ID":"211556964","OBJECT_TYPE":"PAYLOAD","COUNTRY_CODE":"US","MEAN_ANOMALY":"293.5642","RA_OF_ASC_NODE":"146.7636","DECAY_DATE":null,"TLE_LINE1":"1 48584U 21041AH  22245.45964218  .00002057  00000-0  15689-3 0  9997","REF_FRAME":"TEME","CENTER_NAME":"EARTH","MEAN_MOTION":"15.06411546","FILE":"3555279","EPHEMERIS_TYPE":"0","SITE":"AFETR","MEAN_MOTION_DOT":"0.00002057","NORAD_CAT_ID":"48584","EPOCH":"2022-09-02T11:01:53.084352","MEAN_ELEMENT_THEORY":"SGP4","CLASSIFICATION_TYPE":"U","ECCENTRICITY":"0.00016530","TLE_LINE2":"2 48584  53.0554 146.7636 0001653  66.5520 293.5642 15.06411546 71490","MEAN_MOTION_DDOT":"0.0000000000000","ELEMENT_SET_NO":"999","LAUNCH_DATE":"2021-05-15","BSTAR":"0.00015689000000","SEMIMAJOR_AXIS":"6925.313","APOAPSIS":"548.323","TIME_SYSTEM":"UTC","PERIOD":"95.591","RCS_SIZE":"LARGE","ARG_OF_PERICENTER":"66.5520","OBJECT_NAME":"STARLINK-2238","OBJECT_ID":"2021-041AH","INCLINATION":"53.0554"},{"SITE":"AFETR","EPHEMERIS_TYPE":"0","FILE":"3555524","MEAN_ELEMENT_THEORY":"SGP4","EPOCH":"2022-09-02T19:15:32.904288","NORAD_CAT_ID":"48585","MEAN_MOTION_DOT":"0.00019525","TLE_LINE2":"2 48585  53.0534 145.2250 0001977  76.6313 283.4897 15.06364748 71947","ECCENTRICITY":"0.00019770","CLASSIFICATION_TYPE":"U","GP_ID":"211565497","OBJECT_TYPE":"PAYLOAD","PERIAPSIS":"545.952","REV_AT_EPOCH":"7194","DECAY_DATE":null,"RA_OF_ASC_NODE":"145.2250","MEAN_ANOMALY":"283.4897","COUNTRY_CODE":"US","CENTER_NAME":"EARTH","REF_FRAME":"TEME","TLE_LINE1":"1 48585U 21041AJ  22245.80246417  .00019525  00000-0  13273-2 0  9995","MEAN_MOTION":"15.06364748","RCS_SIZE":"LARGE","PERIOD":"95.594","APOAPSIS":"548.691","TIME_SYSTEM":"UTC","ARG_OF_PERICENTER":"76.6313","OBJECT_ID":"2021-041AJ","OBJECT_NAME":"STARLINK-2240","INCLINATION":"53.0534","MEAN_MOTION_DDOT":"0.0000000000000","LAUNCH_DATE":"2021-05-15","ELEMENT_SET_NO":"999","SEMIMAJOR_AXIS":"6925.457","BSTAR":"0.00132730000000"},{"INCLINATION":"53.0543","OBJECT_NAME":"STARLINK-2241","OBJECT_ID":"2021-041AK","ARG_OF_PERICENTER":"77.5698","TIME_SYSTEM":"UTC","APOAPSIS":"548.381","PERIOD":"95.592","RCS_SIZE":"LARGE","BSTAR":"0.00012144000000","SEMIMAJOR_AXIS":"6925.349","ELEMENT_SET_NO":"999","LAUNCH_DATE":"2021-05-15","MEAN_MOTION_DDOT":"0.0000000000000","CLASSIFICATION_TYPE":"U","ECCENTRICITY":"0.00016850","TLE_LINE2":"2 48586  53.0543 146.7386 0001685  77.5698 282.5479 15.06399761 71495","MEAN_MOTION_DOT":"0.00001528","EPOCH":"2022-09-02T11:07:12.170784","MEAN_ELEMENT_THEORY":"SGP4","NORAD_CAT_ID":"48586","FILE":"3555279","EPHEMERIS_TYPE":"0","SITE":"AFETR","MEAN_MOTION":"15.06399761","TLE_LINE1":"1 48586U 21041AK  22245.46333531  .00001528  00000-0  12144-3 0  9993","REF_FRAME":"TEME","CENTER_NAME":"EARTH","COUNTRY_CODE":"US","MEAN_ANOMALY":"282.5479","RA_OF_ASC_NODE":"146.7386","DECAY_DATE":null,"PERIAPSIS":"546.047","REV_AT_EPOCH":"7149","GP_ID":"211555963","OBJECT_TYPE":"PAYLOAD"},{"CENTER_NAME":"EARTH","TLE_LINE1":"1 48587U 21041AL  22245.86510521  .00000633  00000-0  61414-4 0  9995","REF_FRAME":"TEME","MEAN_MOTION":"15.06392813","PERIAPSIS":"546.104","REV_AT_EPOCH":"7195","GP_ID":"211565865","OBJECT_TYPE":"PAYLOAD","MEAN_ANOMALY":"291.1220","RA_OF_ASC_NODE":"144.9402","DECAY_DATE":null,"COUNTRY_CODE":"US","MEAN_ELEMENT_THEORY":"SGP4","NORAD_CAT_ID":"48587","EPOCH":"2022-09-02T20:45:45.090144","MEAN_MOTION_DOT":"0.00000633","TLE_LINE2":"2 48587  53.0554 144.9402 0001634  68.9943 291.1220 15.06392813 71950","CLASSIFICATION_TYPE":"U","ECCENTRICITY":"0.00016340","SITE":"AFETR","FILE":"3555529","EPHEMERIS_TYPE":"0","SEMIMAJOR_AXIS":"6925.371","BSTAR":"0.00006141400000","MEAN_MOTION_DDOT":"0.0000000000000","LAUNCH_DATE":"2021-05-15","ELEMENT_SET_NO":"999","OBJECT_ID":"2021-041AL","OBJECT_NAME":"STARLINK-2242","INCLINATION":"53.0554","RCS_SIZE":"LARGE","TIME_SYSTEM":"UTC","APOAPSIS":"548.367","PERIOD":"95.593","ARG_OF_PERICENTER":"68.9943"},{"SEMIMAJOR_AXIS":"6925.363","BSTAR":"0.00005737800000","MEAN_MOTION_DDOT":"0.0000000000000","ELEMENT_SET_NO":"999","LAUNCH_DATE":"2021-05-15","OBJECT_ID":"2021-041AM","OBJECT_NAME":"STARLINK-2244","INCLINATION":"53.0551","RCS_SIZE":"LARGE","PERIOD":"95.592","APOAPSIS":"548.263","TIME_SYSTEM":"UTC","ARG_OF_PERICENTER":"81.0065","CENTER_NAME":"EARTH","REF_FRAME":"TEME","TLE_LINE1":"1 48588U 21041AM  22245.84390898  .00000573  00000-0  57378-4 0  9994","MEAN_MOTION":"15.06395304","OBJECT_TYPE":"PAYLOAD","GP_ID":"211565533","REV_AT_EPOCH":"7214","PERIAPSIS":"546.193","RA_OF_ASC_NODE":"135.0327","DECAY_DATE":null,"MEAN_ANOMALY":"279.1093","COUNTRY_CODE":"US","MEAN_ELEMENT_THEORY":"SGP4","EPOCH":"2022-09-02T20:15:13.735872","NORAD_CAT_ID":"48588","MEAN_MOTION_DOT":"0.00000573","TLE_LINE2":"2 48588  53.0551 135.0327 0001494  81.0065 279.1093 15.06395304 72144","ECCENTRICITY":"0.00014940","CLASSIFICATION_TYPE":"U","SITE":"AFETR","EPHEMERIS_TYPE":"0","FILE":"3555529"},{"LAUNCH_DATE":"2021-05-15","ELEMENT_SET_NO":"999","MEAN_MOTION_DDOT":"0.0000000000000","BSTAR":"0.00000778820000","SEMIMAJOR_AXIS":"6925.332","ARG_OF_PERICENTER":"78.9186","APOAPSIS":"548.337","TIME_SYSTEM":"UTC","PERIOD":"95.592","RCS_SIZE":"LARGE","INCLINATION":"53.0548","OBJECT_ID":"2021-041AN","OBJECT_NAME":"STARLINK-2245","COUNTRY_CODE":"US","MEAN_ANOMALY":"281.1988","RA_OF_ASC_NODE":"135.0514","DECAY_DATE":null,"REV_AT_EPOCH":"7169","PERIAPSIS":"546.057","GP_ID":"211589503","OBJECT_TYPE":"PAYLOAD","MEAN_MOTION":"15.06405325","REF_FRAME":"TEME","TLE_LINE1":"1 48589U 21041AN  22245.84022591 -.00000166  00000-0  77882-5 0  9999","CENTER_NAME":"EARTH","FILE":"3555599","EPHEMERIS_TYPE":"0","SITE":"AFETR","CLASSIFICATION_TYPE":"U","ECCENTRICITY":"0.00016460","TLE_LINE2":"2 48589  53.0548 135.0514 0001646  78.9186 281.1988 15.06405325 71697","MEAN_MOTION_DOT":"-0.00000166","EPOCH":"2022-09-02T20:09:55.518624","MEAN_ELEMENT_THEORY":"SGP4","NORAD_CAT_ID":"48589"},{"SEMIMAJOR_AXIS":"6925.363","BSTAR":"0.00000921780000","MEAN_MOTION_DDOT":"0.0000000000000","LAUNCH_DATE":"2021-05-15","ELEMENT_SET_NO":"999","OBJECT_ID":"2021-041AQ","OBJECT_NAME":"STARLINK-2248","INCLINATION":"53.0547","RCS_SIZE":"LARGE","TIME_SYSTEM":"UTC","APOAPSIS":"548.404","PERIOD":"95.592","ARG_OF_PERICENTER":"80.3240","CENTER_NAME":"EARTH","REF_FRAME":"TEME","TLE_LINE1":"1 48591U 21041AQ  22245.42646085 -.00000144  00000-0  92178-5 0  9997","MEAN_MOTION":"15.06395196","PERIAPSIS":"546.052","REV_AT_EPOCH":"7253","OBJECT_TYPE":"PAYLOAD","GP_ID":"211555463","MEAN_ANOMALY":"279.7940","RA_OF_ASC_NODE":"136.9150","DECAY_DATE":null,"COUNTRY_CODE":"US","EPOCH":"2022-09-02T10:14:06.217440","MEAN_ELEMENT_THEORY":"SGP4","NORAD_CAT_ID":"48591","MEAN_MOTION_DOT":"-0.00000144","TLE_LINE2":"2 48591  53.0547 136.9150 0001698  80.3240 279.7940 15.06395196 72539","CLASSIFICATION_TYPE":"U","ECCENTRICITY":"0.00016980","SITE":"AFETR","FILE":"3555279","EPHEMERIS_TYPE":"0"},{"OBJECT_TYPE":"PAYLOAD","GP_ID":"211555713","REV_AT_EPOCH":"7144","PERIAPSIS":"546.088","DECAY_DATE":null,"RA_OF_ASC_NODE":"148.3799","MEAN_ANOMALY":"288.1534","COUNTRY_CODE":"US","CENTER_NAME":"EARTH","TLE_LINE1":"1 48592U 21041AR  22245.10486800 -.00000883  00000-0 -40382-4 0  9990","REF_FRAME":"TEME","MEAN_MOTION":"15.06393143","SITE":"AFETR","EPHEMERIS_TYPE":"0","FILE":"3555279","NORAD_CAT_ID":"48592","MEAN_ELEMENT_THEORY":"SGP4","EPOCH":"2022-09-02T02:31:00.595200","MEAN_MOTION_DOT":"-0.00000883","TLE_LINE2":"2 48592  53.0554 148.3799 0001655  71.9635 288.1534 15.06393143 71443","ECCENTRICITY":"0.00016550","CLASSIFICATION_TYPE":"U","MEAN_MOTION_DDOT":"0.0000000000000","LAUNCH_DATE":"2021-05-15","ELEMENT_SET_NO":"999","SEMIMAJOR_AXIS":"6925.370","BSTAR":"-0.00004038200000","RCS_SIZE":"LARGE","PERIOD":"95.593","APOAPSIS":"548.381","TIME_SYSTEM":"UTC","ARG_OF_PERICENTER":"71.9635","OBJECT_ID":"2021-041AR","OBJECT_NAME":"STARLINK-2249","INCLINATION":"53.0554"},{"FILE":"3555279","EPHEMERIS_TYPE":"0","SITE":"AFETR","CLASSIFICATION_TYPE":"U","ECCENTRICITY":"0.00017260","TLE_LINE2":"2 48593  53.0545 146.8442 0001726  70.0038 290.1137 15.06405699 71495","MEAN_MOTION_DOT":"0.00001527","EPOCH":"2022-09-02T10:35:21.604992","MEAN_ELEMENT_THEORY":"SGP4","NORAD_CAT_ID":"48593","COUNTRY_CODE":"US","MEAN_ANOMALY":"290.1137","DECAY_DATE":null,"RA_OF_ASC_NODE":"146.8442","REV_AT_EPOCH":"7149","PERIAPSIS":"546.001","GP_ID":"211556965","OBJECT_TYPE":"PAYLOAD","MEAN_MOTION":"15.06405699","REF_FRAME":"TEME","TLE_LINE1":"1 48593U 21041AS  22245.44122228  .00001527  00000-0  12136-3 0  9998","CENTER_NAME":"EARTH","ARG_OF_PERICENTER":"70.0038","APOAPSIS":"548.391","TIME_SYSTEM":"UTC","PERIOD":"95.592","RCS_SIZE":"LARGE","INCLINATION":"53.0545","OBJECT_ID":"2021-041AS","OBJECT_NAME":"STARLINK-2250","ELEMENT_SET_NO":"999","LAUNCH_DATE":"2021-05-15","MEAN_MOTION_DDOT":"0.0000000000000","BSTAR":"0.00012136000000","SEMIMAJOR_AXIS":"6925.331"},{"SITE":"AFETR","EPHEMERIS_TYPE":"0","FILE":"3555543","EPOCH":"2022-09-02T20:49:44.732640","MEAN_ELEMENT_THEORY":"SGP4","NORAD_CAT_ID":"48594","MEAN_MOTION_DOT":"0.00000463","TLE_LINE2":"2 48594  53.0554 115.0104 0001293  86.5731 273.5406 15.06396394 72430","ECCENTRICITY":"0.00012930","CLASSIFICATION_TYPE":"U","GP_ID":"211566054","OBJECT_TYPE":"PAYLOAD","REV_AT_EPOCH":"7243","PERIAPSIS":"546.329","RA_OF_ASC_NODE":"115.0104","DECAY_DATE":null,"MEAN_ANOMALY":"273.5406","COUNTRY_CODE":"US","CENTER_NAME":"EARTH","REF_FRAME":"TEME","TLE_LINE1":"1 48594U 21041AT  22245.86787885  .00000463  00000-0  49949-4 0  9992","MEAN_MOTION":"15.06396394","RCS_SIZE":"LARGE","PERIOD":"95.592","APOAPSIS":"548.120","TIME_SYSTEM":"UTC","ARG_OF_PERICENTER":"86.5731","OBJECT_ID":"2021-041AT","OBJECT_NAME":"STARLINK-2251","INCLINATION":"53.0554","MEAN_MOTION_DDOT":"0.0000000000000","ELEMENT_SET_NO":"999","LAUNCH_DATE":"2021-05-15","SEMIMAJOR_AXIS":"6925.360","BSTAR":"0.00004994900000"}];
